NORAD_CAT_ID,OBJECT_NAME,OBJECT_TYPE,EPOCH,MEAN_MOTION,ECCENTRICITY,INCLINATION,RA_OF_ASC_NODE,ARG_OF_PERICENTER,MEAN_ANOMALY,BSTAR,MEAN_MOTION_DOT,MEAN_MOTION_DDOT,TLE_LINE0,TLE_LINE1,TLE_LINE2,SEMIMAJOR_AXIS,PERIOD,APOGEE,PERIGEE,DECAYED
50182.0,STARLINK-3277,PAYLOAD,2023-06-14 02:03:31,15.08845843,0.0001012,53.2177,56.3731,90.9077,269.2031,2.4855e-05,1.08e-06,0.0,0 STARLINK-3277,1 50182U 21125AC  23165.08578348  .00000108  00000-0  24855-4 0  9994,2 50182  53.2177  56.3731 0001012  90.9077 269.2031 15.08845843 85219,6917.863,95.437,540.428,539.027,0.0
50182.0,STARLINK-3277,PAYLOAD,2023-06-14 16:22:00,15.08834739,0.0001094,53.2181,53.6983,82.8242,277.2875,9.565e-05,1.235e-05,0.0,0 STARLINK-3277,1 50182U 21125AC  23165.68194858  .00001235  00000-0  95650-4 0  9993,2 50182  53.2181  53.6983 0001094  82.8242 277.2875 15.08834739 85304,6917.896,95.438,540.518,539.005,0.0
50182.0,STARLINK-3277,PAYLOAD,2023-06-15 16:12:47,15.0884362,0.0001138,53.2185,49.2372,87.6618,272.4504,-7.6991e-06,-4.1e-06,0.0,0 STARLINK-3277,1 50182U 21125AC  23166.67554824 -.00000410  00000-0 -76991-5 0  9990,2 50182  53.2185  49.2372 0001138  87.6618 272.4504 15.08843620 85978,6917.869,95.437,540.522,538.947,0.0
50182.0,STARLINK-3277,PAYLOAD,2023-06-15 22:34:19,15.08844839,0.0001114,53.2174,48.0487,90.4961,269.6159,3.3002e-05,2.38e-06,0.0,0 STARLINK-3277,1 50182U 21125AC  23166.94050476  .00000238  00000-0  33002-4 0  9995,2 50182  53.2174  48.0487 0001114  90.4961 269.6159 15.08844839 85491,6917.866,95.437,540.501,538.96,0.0
50182.0,STARLINK-3277,PAYLOAD,2023-06-16 09:42:01,15.08850077,0.0001014,53.2173,45.9659,91.5821,268.5288,-1.1876e-05,-4.77e-06,0.0,0 STARLINK-3277,1 50182U 21125AC  23167.40418071 -.00000477  00000-0 -11876-4 0  9998,2 50182  53.2173  45.9659 0001014  91.5821 268.5288 15.08850077 86081,6917.85,95.437,540.416,539.013,0.0
50182.0,STARLINK-3277,PAYLOAD,2023-06-17 00:00:28,15.08849484,0.0001183,53.2179,43.2892,98.097,262.0157,0.00012758,1.744e-05,0.0,0 STARLINK-3277,1 50182U 21125AC  23168.00033510  .00001744  00000-0  12758-3 0  9991,2 50182  53.2179  43.2892 0001183  98.0970 262.0157 15.08849484 85657,6917.851,95.437,540.535,538.898,0.0
50182.0,STARLINK-3277,PAYLOAD,2023-06-17 15:54:22,15.08829806,9.97e-05,53.2175,40.3154,109.7234,250.3866,-9.2846e-05,-1.765e-05,0.0,0 STARLINK-3277,1 50182U 21125AC  23168.66275604 -.00001765  00000-0 -92846-4 0  9997,2 50182  53.2175  40.3154 0000997 109.7234 250.3866 15.08829806 85751,6917.912,95.438,540.466,539.087,0.0
50182.0,STARLINK-3277,PAYLOAD,2023-06-17 22:15:55,15.08824666,8.81e-05,53.2177,39.1267,95.8785,264.2307,-0.00012092,-2.211e-05,0.0,0 STARLINK-3277,1 50182U 21125AC  23168.92772226 -.00002211  00000-0 -12092-3 0  9999,2 50182  53.2177  39.1267 0000881  95.8785 264.2307 15.08824666 86318,6917.927,95.439,540.402,539.183,0.0
50182.0,STARLINK-3277,PAYLOAD,2023-06-18 01:26:41,15.08826539,9.37e-05,53.2176,38.5314,95.7786,264.3313,-0.00010696,-1.989e-05,0.0,0 STARLINK-3277,1 50182U 21125AC  23169.06020168 -.00001989  00000-0 -10696-3 0  9995,2 50182  53.2176  38.5314 0000937  95.7786 264.3313 15.08826539 86336,6917.922,95.438,540.435,539.138,0.0
50182.0,STARLINK-3277,PAYLOAD,2023-06-18 17:20:32,15.08838296,0.0001014,53.2181,35.5589,94.3637,265.7471,-7.0204e-06,-3.99e-06,0.0,0 STARLINK-3277,1 50182U 21125AC  23169.72259415 -.00000399  00000-0 -70204-5 0  9994,2 50182  53.2181  35.5589 0001014  94.3637 265.7471 15.08838296 85916,6917.886,95.438,540.452,539.049,0.0
50182.0,STARLINK-3277,PAYLOAD,2023-06-18 23:42:03,15.08852281,9.64e-05,53.2177,34.3694,101.2392,258.8708,-2.5985e-05,-7.01e-06,0.0,0 STARLINK-3277,1 50182U 21125AC  23169.98754623 -.00000701  00000-0 -25985-4 0  9995,2 50182  53.2177  34.3694 0000964 101.2392 258.8708 15.08852281 85954,6917.843,95.437,540.375,539.041,0.0
50182.0,STARLINK-3277,PAYLOAD,2023-06-19 07:38:59,15.08850511,9.56e-05,53.2177,32.8828,101.8645,258.2454,-3.4145e-05,-8.31e-06,0.0,0 STARLINK-3277,1 50182U 21125AC  23170.31874628 -.00000831  00000-0 -34145-4 0  9994,2 50182  53.2177  32.8828 0000956 101.8645 258.2454 15.08850511 86524,6917.848,95.437,540.375,539.052,0.0
50182.0,STARLINK-3277,PAYLOAD,2023-06-19 14:00:33,15.08827747,0.0001026,53.2178,31.6937,105.2385,254.8721,0.00019199,2.768e-05,0.0,0 STARLINK-3277,1 50182U 21125AC  23170.58371717  .00002768  00000-0  19199-3 0  9994,2 50182  53.2178  31.6937 0001026 105.2385 254.8721 15.08827747 86042,6917.918,95.438,540.493,539.073,0.0
50182.0,STARLINK-3277,PAYLOAD,2023-06-20 01:08:14,15.08837223,0.0001021,53.2177,29.6117,102.7043,257.4063,0.00024989,3.691e-05,0.0,0 STARLINK-3277,1 50182U 21125AC  23171.04739332  .00003691  00000-0  24989-3 0  9996,2 50182  53.2177  29.6117 0001021 102.7043 257.4063 15.08837223 86112,6917.889,95.438,540.46,539.048,0.0
50182.0,STARLINK-3277,PAYLOAD,2023-06-20 07:29:47,15.08836226,0.0001028,53.217,28.4227,93.2581,266.8529,0.00017133,2.44e-05,0.0,0 STARLINK-3277,1 50182U 21125AC  23171.31235726  .00002440  00000-0  17133-3 0  9998,2 50182  53.2170  28.4227 0001028  93.2581 266.8529 15.08836226 86676,6917.892,95.438,540.468,539.046,0.0
50182.0,STARLINK-3277,PAYLOAD,2023-06-20 13:51:20,15.08835787,0.0001015,53.218,27.233,91.5909,268.52,7.2074e-05,8.59e-06,0.0,0 STARLINK-3277,1 50182U 21125AC  23171.57731971  .00000859  00000-0  72074-4 0  9997,2 50182  53.2180  27.2330 0001015  91.5909 268.5200 15.08835787 86193,6917.893,95.438,540.46,539.056,0.0
50182.0,STARLINK-3277,PAYLOAD,2023-06-20 20:12:52,15.08843138,9.89e-05,53.2181,26.0435,91.8826,268.228,7.722e-06,-1.65e-06,0.0,0 STARLINK-3277,1 50182U 21125AC  23171.84227653 -.00000165  00000-0  77220-5 0  9994,2 50182  53.2181  26.0435 0000989  91.8826 268.2280 15.08843138 86753,6917.871,95.437,540.42,539.052,0.0
50182.0,STARLINK-3277,PAYLOAD,2023-06-20 23:23:38,15.08846839,0.0001014,53.2182,25.4486,85.5066,274.6042,2.5439e-05,1.17e-06,0.0,0 STARLINK-3277,1 50182U 21125AC  23171.97475294  .00000117  00000-0  25439-4 0  9994,2 50182  53.2182  25.4486 0001014  85.5066 274.6042 15.08846839 86252,6917.859,95.437,540.426,539.023,0.0
50182.0,STARLINK-3277,PAYLOAD,2023-06-21 18:28:16,15.08836751,9.85e-05,53.2182,21.8802,78.4869,281.6234,5.9986e-05,6.67e-06,0.0,0 STARLINK-3277,1 50182U 21125AC  23172.76963821  .00000667  00000-0  59986-4 0  9994,2 50182  53.2182  21.8802 0000985  78.4869 281.6234 15.08836751 86378,6917.89,95.438,540.437,539.074,0.0
50182.0,STARLINK-3277,PAYLOAD,2023-06-21 20:03:39,15.08842013,9.89e-05,53.2176,21.5841,76.1994,283.9109,3.5576e-05,2.79e-06,0.0,0 STARLINK-3277,1 50182U 21125AC  23172.83587569  .00000279  00000-0  35576-4 0  9991,2 50182  53.2176  21.5841 0000989  76.1994 283.9109 15.08842013 86902,6917.874,95.437,540.423,539.055,0.0
50182.0,STARLINK-3277,PAYLOAD,2023-06-21 21:39:02,15.08844414,9.37e-05,53.2179,21.2857,85.2058,274.9041,4.8083e-05,4.78e-06,0.0,0 STARLINK-3277,1 50182U 21125AC  23172.90211328  .00000478  00000-0  48083-4 0  9994,2 50182  53.2179  21.2857 0000937  85.2058 274.9041 15.08844414 86399,6917.867,95.437,540.38,539.084,0.0
50182.0,STARLINK-3277,PAYLOAD,2023-06-23 07:02:08,15.08842477,8.53e-05,53.2172,15.0414,103.4215,256.6872,-3.5595e-06,-3.44e-06,0.0,0 STARLINK-3277,1 50182U 21125AC  23174.29315471 -.00000344  00000-0 -35595-5 0  9991,2 50182  53.2172  15.0414 0000853 103.4215 256.6872 15.08842477 86607,6917.873,95.437,540.328,539.148,0.0
50182.0,STARLINK-3277,PAYLOAD,2023-06-24 16:25:14,15.08840452,0.000114,53.2163,8.7954,87.1926,272.9197,4.4943e-05,4.28e-06,0.0,0 STARLINK-3277,1 50182U 21125AC  23175.68419623  .00000428  00000-0  44943-4 0  9996,2 50182  53.2163   8.7954 0001140  87.1926 272.9197 15.08840452 86817,6917.879,95.438,540.533,538.955,0.0
50182.0,STARLINK-3277,PAYLOAD,2023-06-24 21:11:23,15.08847473,0.0001076,53.2187,7.9017,92.6624,267.4492,1.8595e-05,8e-08,0.0,0 STARLINK-3277,1 50182U 21125AC  23175.88291216  .00000008  00000-0  18595-4 0  9992,2 50182  53.2187   7.9017 0001076  92.6624 267.4492 15.08847473 86848,6917.858,95.437,540.467,538.978,0.0
50182.0,STARLINK-3277,PAYLOAD,2023-06-25 16:16:02,15.08833527,0.000114,53.2179,4.3337,100.3768,259.7353,3.4732e-05,2.65e-06,0.0,0 STARLINK-3277,1 50182U 21125AC  23176.67780124  .00000265  00000-0  34732-4 0  9997,2 50182  53.2179   4.3337 0001140 100.3768 259.7353 15.08833527 86961,6917.9,95.438,540.554,538.977,0.0
50182.0,STARLINK-3277,PAYLOAD,2023-06-25 21:02:10,15.08844696,0.0001006,53.2177,3.4436,81.9129,278.1977,7.7536e-05,9.47e-06,0.0,0 STARLINK-3277,1 50182U 21125AC  23176.87651436  .00000947  00000-0  77536-4 0  9998,2 50182  53.2177   3.4436 0001006  81.9129 278.1977 15.08844696 86994,6917.866,95.437,540.427,539.035,0.0
50182.0,STARLINK-3277,PAYLOAD,2023-06-26 04:59:06,15.08839317,9.54e-05,53.2177,1.9547,72.855,287.2547,3.4977e-05,2.69e-06,0.0,0 STARLINK-3277,1 50182U 21125AC  23177.20771941  .00000269  00000-0  34977-4 0  9999,2 50182  53.2177   1.9547 0000954  72.8550 287.2547 15.08839317 87043,6917.882,95.438,540.407,539.088,0.0
50182.0,STARLINK-3277,PAYLOAD,2023-06-27 19:08:22,15.0884173,0.0001049,53.2185,354.8216,114.0713,246.0389,2.5292e-05,1.15e-06,0.0,0 STARLINK-3277,1 50182U 21125AC  23178.79748211  .00000115  00000-0  25292-4 0  9998,2 50182  53.2185 354.8216 0001049 114.0713 246.0389 15.08841730 87286,6917.875,95.437,540.466,539.014,0.0
50182.0,STARLINK-3277,PAYLOAD,2023-06-29 10:53:01,15.08824993,9.65e-05,53.2183,347.3866,90.4992,269.611,0.0002395,3.524e-05,0.0,0 STARLINK-3277,1 50182U 21125AC  23180.45348939  .00003524  00000-0  23950-3 0  9992,2 50182  53.2183 347.3866 0000965  90.4992 269.6110 15.08824993 87537,6917.926,95.439,540.459,539.124,0.0
50182.0,STARLINK-3277,PAYLOAD,2023-06-29 18:49:56,15.08842507,8.98e-05,53.2183,345.9002,82.5263,277.5831,5.4005e-05,5.72e-06,0.0,0 STARLINK-3277,1 50182U 21125AC  23180.78468355  .00000572  00000-0  54005-4 0  9999,2 50182  53.2183 345.9002 0000898  82.5263 277.5831 15.08842507 87585,6917.873,95.437,540.359,539.117,0.0
